{"spkid": "50579003", "covariance": {"epoch": "2458231.5", "elements": [{"name": "e", "sigma": 2.34829033014655e-08, "title": "eccentricity", "value": ".477052658600022", "units": null, "label": "e"}, {"units": "au", "title": "perihelion distance", "value": ".9015860233002293", "name": "q", "sigma": 3.94905633237344e-08, "label": "q"}, {"value": "2458376.455597224654", "title": "time of perihelion passage", "units": "TDB", "name": "tp", "sigma": 1.47041703258184e-05, "label": "tp"}, {"name": "om", "sigma": 1.48279083514085e-05, "title": "longitude of the ascending node", "value": "198.8855897812564", "units": "deg", "label": "node"}, {"label": "peri", "units": "deg", "value": "243.3921474729719", "title": "argument of perihelion", "name": "w", "sigma": 1.69965109000559e-05}, {"label": "i", "title": "inclination", "value": "9.918115124006677", "units": "deg", "name": "i", "sigma": 6.68146888296483e-06}], "data": [["5.514467474659783E-16", "-9.264866875811497E-16", "1.493145941025187E-13", "4.134432110414136E-15", "1.135149941778588E-13", "4.61476841343346E-15"], ["-9.264866875811497E-16", "1.559504591625873E-15", "-2.313878297705705E-13", "-6.065333850910102E-15", "-1.811432668056927E-13", "-7.075951290525426E-15"], ["1.493145941025187E-13", "-2.313878297705705E-13", "2.162126249706783E-10", "1.737896444115482E-11", "1.210277829046181E-10", "4.120723591556982E-12"], ["4.134432110414136E-15", "-6.065333850910102E-15", "1.737896444115482E-11", "2.19866866077771E-10", "-2.056541431025266E-10", "-5.216454439736123E-11"], ["1.135149941778588E-13", "-1.811432668056927E-13", "1.210277829046181E-10", "-2.056541431025266E-10", "2.888813827757182E-10", "5.433639650388984E-11"], ["4.61476841343346E-15", "-7.075951290525426E-15", "4.120723591556982E-12", "-5.216454439736123E-11", "5.433639650388984E-11", "4.464202643402726E-11"]], "labels": ["e", "q", "tp", "node", "peri", "i"]}, "elements": [{"label": "e", "sigma": "2.3562E-8", "name": "e", "value": ".4768983198942585", "title": "eccentricity", "units": null}, {"label": "a", "name": "a", "sigma": "3.8509E-9", "units": "au", "title": "semi-major axis", "value": "1.724576315855274"}, {"label": "q", "units": "au", "title": "perihelion distance", "value": ".9021287682944641", "name": "q", "sigma": "3.9692E-8"}, {"label": "i", "title": "inclination; angle with respect to x-y ecliptic plane", "value": "9.911319575730312", "units": "deg", "sigma": "6.6788E-6", "name": "i"}, {"label": "node", "units": "deg", "title": "longitude of the ascending node", "value": "198.717332275901", "sigma": "1.482E-5", "name": "om"}, {"label": "peri", "units": "deg", "title": "argument of perihelion", "value": "243.6352695222703", "name": "w", "sigma": "1.7002E-5"}, {"units": "deg", "value": "148.9344498400644", "title": "mean anomaly", "sigma": "1.0211E-5", "name": "ma", "label": "M"}, {"label": "tp", "units": "TDB", "title": "time of perihelion passage", "value": "2460858.272647271802", "name": "tp", "sigma": "2.2369E-5"}, {"units": "d", "title": "sidereal orbital period", "value": "827.2219564677853", "sigma": "2.7707E-6", "name": "per", "label": "period"}, {"label": "n", "value": ".43519154343677", "title": "mean motion", "units": "deg/d", "sigma": "1.4577E-9", "name": "n"}, {"label": "Q", "title": "aphelion distance", "value": "2.547023863416085", "units": "au", "sigma": "5.6874E-9", "name": "ad"}], "epoch": "2461200.5"}